TRANSPORTER-10 OBJECT AD
1 59125U 24043AD  26068.86032889  .00011954  00000+0  36311-3 0  9997
2 59125  97.5470 207.3753 0008984 221.4908 138.5653 15.34189901112026
STARLINK-35175          
1 65929U 25225V   26068.52822907  .00028395  00000+0  96737-3 0  9995
2 65929  53.1600 166.4090 0000980  69.0864 291.0242 15.30192886 24384
