[{"OBJECT_NAME":"TRANSPORTER-10 OBJECT AD","OBJECT_ID":"2024-043AD","EPOCH":"2026-03-09T20:38:52.416960","MEAN_MOTION":15.34189901,"ECCENTRICITY":0.00089841,"INCLINATION":97.547,"RA_OF_ASC_NODE":207.3753,"ARG_OF_PERICENTER":221.4908,"MEAN_ANOMALY":138.5653,"EPHEMERIS_TYPE":0,"CLASSIFICATION_TYPE":"U","NORAD_CAT_ID":59125,"ELEMENT_SET_NO":999,"REV_AT_EPOCH":11202,"BSTAR":0.00036310552,"MEAN_MOTION_DOT":0.00011954,"MEAN_MOTION_DDOT":0},{"OBJECT_NAME":"STARLINK-35175","OBJECT_ID":"2025-225V","EPOCH":"2026-03-09T12:40:38.991648","MEAN_MOTION":15.30192886,"ECCENTRICITY":9.806e-5,"INCLINATION":53.16,"RA_OF_ASC_NODE":166.409,"ARG_OF_PERICENTER":69.0864,"MEAN_ANOMALY":291.0242,"EPHEMERIS_TYPE":0,"CLASSIFICATION_TYPE":"U","NORAD_CAT_ID":65929,"ELEMENT_SET_NO":999,"REV_AT_EPOCH":2438,"BSTAR":0.0009673652,"MEAN_MOTION_DOT":0.00028395,"MEAN_MOTION_DDOT":0}]
